CSS (TIANHE)            
1 48274U 21035A   24037.32445611  .00019666  00000+0  21224-3 0  9999
2 48274  41.4673 168.8104 0008307 311.6582  48.3546 15.63137477158451
